GLOBALSTAR M094         
1 39074U 13005C   24359.10089274 -.00000093  00000+0  60558-4 0  9996
2 39074  51.9979 355.2029 0000076 196.7825 163.3039 12.62266348550287
GLOBALSTAR M096         
1 39075U 13005D   24358.63899569 -.00000091  00000+0  73979-4 0  9999
2 39075  52.0090  44.9868 0000506 162.8505 197.2379 12.62265984549471
GLOBALSTAR M078         
1 39076U 13005E   24358.53284823 -.00000084  00000+0  11172-3 0  9998
2 39076  51.9858 130.0537 0001670 132.1007 228.0001 12.62267789547739
GLOBALSTAR M095         
1 39077U 13005F   24358.55965627 -.00000093  00000+0  58267-4 0  9996
2 39077  51.9786 127.2589 0001252 138.3048 221.7914 12.62269707547593
GLOBALSTAR M087         
1 52888U 22064A   24358.18913209 -.00000077  00000+0  13585-3 0  9999
2 52888  51.9784 273.1874 0021252 350.4290   9.6181 12.88917850122755
